[Satellite]
VERSION=1.1
NAME=IRIDIUM 142
NICKNAME=IRIDIUM 142
TLE1=1 43256U 18030H   19317.32874276  .00000097  00000-0  27437-4 0  9995
TLE2=2 43256  86.4019 216.6379 0002065  85.9384 274.2047 14.34218515 85018
STATUS=0
